#aV2024 11 20  0  0  0.00000000     288 DD+AD WGS84 FIT  NGA
## 2341 259200.00000000   300.00000000 60634 0.0000000000000
+   31     2  3  4  5  6  7  8  9 10 11 12 13 14 15 16 17 18
+         19 20 21 22 23 24 25 26 27 28 29 30 31 32  0  0  0
+          0  0  0  0  0  0  0  0  0  0  0  0  0  0  0  0  0
+          0  0  0  0  0  0  0  0  0  0  0  0  0  0  0  0  0
+          0  0  0  0  0  0  0  0  0  0  0  0  0  0  0  0  0
++         2  2  2  2  2  2  2  2  2  2  2  2  2  2  2  2  2
++         2  2  2  2  2  2  2  2  2  2  2  2  2  2  0  0  0
++         0  0  0  0  0  0  0  0  0  0  0  0  0  0  0  0  0
++         0  0  0  0  0  0  0  0  0  0  0  0  0  0  0  0  0
++         0  0  0  0  0  0  0  0  0  0  0  0  0  0  0  0  0
%c cc cc ccc ccc cccc cccc cccc cccc ccccc ccccc ccccc ccccc
%c cc cc ccc ccc cccc cccc cccc cccc ccccc ccccc ccccc ccccc
%f  0.0000000  0.000000000  0.00000000000  0.000000000000000
%f  0.0000000  0.000000000  0.00000000000  0.000000000000000
%i    0    0    0    0      0      0      0      0         0
%i    0    0    0    0      0      0      0      0         0
/*      NGA, ST. LOUIS,MO.                                  
/*   EPHEMERIS COMPUTED FROM 2 DAYS OF DATA                 
/*   EPOCHA v9 SMOOTHER                                     
/*   G2296 IERS2010 SATIGS SATAPC                           
*  2024 11 20  9  0  0.00000000
P  2  -4681.275975  17167.369922 -19126.667073   -310.444686                    
V  2 -23356.439221  10115.775364  14794.593151      0.086170                    
P  3   7877.017779  19790.680442 -16100.452363    604.661648                    
V  3 -16484.885553 -11463.489875 -22278.986435      0.099248                    
P  4    103.785327  25645.005952   6617.514240    482.562797                    
V  4  -4077.928400   7823.175049 -30464.371840      0.064229                    
P  5   7434.682670 -12892.243635  21819.739980   -193.560408                    
V  5  23023.101485  16101.726025   1718.114690     -0.011605                    
P  6  25204.361760  -4643.315588  -7127.326559   -128.721114                    
V  6  -7872.122812   4871.127472 -30586.394192     -0.294786                    
P  7  13098.461601  10908.584261  20999.843063    -19.129270                    
V  7 -23321.013172  10083.373501   9103.140253      0.020312                    
P  8  -6283.373094  25005.857514   5178.686410    418.380751                    
V  8  -2735.521955  -7138.221974  30881.427141      0.100088                    
P  9   7711.442652  20883.107886  14342.045354    451.872863                    
V  9  -4299.736867  18029.774366 -23849.873052      0.171099                    
P 10 -22680.424473  -8660.735515 -10941.310891   -202.807551                    
V 10 -10113.498810  -9915.687186  27905.862601     -0.146084                    
P 11  22504.138967 -12540.606600   6359.930636   -750.784898                    
V 11   8440.453828   -211.314140 -30526.674991     -0.014065                    
P 12  -2370.185355 -19345.876259 -18347.160113   -553.269539                    
V 12  17837.574030  14117.192355 -17419.693883     -0.024875                    
P 13  13479.073962 -19877.569932  10841.647743    686.770878                    
V 13  -1682.303959  14282.255834  27913.999173      0.015507                    
P 14  22806.607516  11529.309476  -7621.241841    543.629584                    
V 14   5656.760527   8403.956740  29231.303215      0.080063                    
P 15   2642.447469 -25914.667452   4232.272387    229.956115                    
V 15   3802.211664   5990.360817  30695.601467      0.045445                    
P 16 -13185.227845   8051.501763  21301.591035   -123.712161                    
V 16 -20173.673039 -19161.582988  -4720.922063      0.097530                    
P 17  13988.330066   5578.025597 -21448.545938    551.611799                    
V 17  -5980.502401  27594.491285   3402.581934     -0.147964                    
P 18 -14823.306484  -9030.085316  20200.255946   -660.491969                    
V 18  23507.166208  -9859.373068  12639.990831     -0.002711                    
P 19  15979.410475  -5069.349935 -20638.009495    564.868862                    
V 19  -5234.434506  25473.391764 -10802.602201      0.043946                    
P 20  17693.846390  -5807.459839  18963.225070    368.579469                    
V 20  20520.551797  12489.142490 -15526.600961     -0.003320                    
P 21 -10460.737430  17759.807861 -15711.667252     97.014121                    
V 21 -20018.389955   7271.639332  22093.431193     -0.009371                    
P 22  21041.936740   5817.305269 -14514.990977    -80.765108                    
V 22  12383.402656  14930.659489  23607.466388     -0.028114                    
P 23 -20548.283608 -16908.548973   2042.745680    367.035941                    
V 23   3182.832724    -54.222141  31930.075261      0.079001                    
P 24   5903.687462 -18493.335547 -18415.862181   -479.168901                    
V 24  21028.512692  -8764.533320  16352.558636      0.023326                    
P 25 -15537.014421 -19845.722189  -9143.862874    498.865193                    
V 25  10400.760516   4566.712815 -28430.750797     -0.003067                    
P 26 -21326.047798    219.955015  15890.585316     19.886312                    
V 26 -15847.687585 -13108.437734 -20471.483812     -0.131766                    
P 27 -12481.323842  18080.740516  14310.319760    -34.663080                    
V 27    -48.052530 -19032.664052  23939.120267      0.001302                    
P 28 -24622.869289   3787.269189  -9233.368161   -484.543259                    
V 28   9687.033936  -7039.130353 -28761.941213     -0.116122                    
P 29  -5190.723097 -21781.372449  14148.157641   -562.387668                    
V 29   5864.879905 -17214.026252 -24396.800690      0.029640                    
P 30  22188.377681   2698.260283  14697.082999   -278.173249                    
V 30 -16110.187861   9150.664537  22604.819609      0.078583                    
P 31 -24710.612753  10186.170683   1124.145225   -221.442877                    
V 31  -2558.134269  -1948.484239 -31319.644138      0.006651                    
P 32 -14929.691325  -1985.610786 -21657.729083   -571.155065                    
V 32   3534.091667 -27796.288166    -89.653248      0.054242                    
EOF
